[{"OBJECT_NAME":"YAOGAN-40 02C","OBJECT_ID":"2025-096C","EPOCH":"2026-03-09T23:00:48.049344","MEAN_MOTION":14.12429028,"ECCENTRICITY":0.00019858,"INCLINATION":85.9918,"RA_OF_ASC_NODE":231.6606,"ARG_OF_PERICENTER":86.0596,"MEAN_ANOMALY":274.0814,"EPHEMERIS_TYPE":0,"CLASSIFICATION_TYPE":"U","NORAD_CAT_ID":63920,"ELEMENT_SET_NO":999,"REV_AT_EPOCH":6140,"BSTAR":0.00013239908,"MEAN_MOTION_DOT":2.63e-6,"MEAN_MOTION_DDOT":0},{"OBJECT_NAME":"METEOR 2-17 DEB","OBJECT_ID":"1988-005AC","EPOCH":"2026-03-07T01:14:03.283296","MEAN_MOTION":14.11384178,"ECCENTRICITY":0.00314083,"INCLINATION":82.5555,"RA_OF_ASC_NODE":329.9189,"ARG_OF_PERICENTER":32.6502,"MEAN_ANOMALY":327.6606,"EPHEMERIS_TYPE":0,"CLASSIFICATION_TYPE":"U","NORAD_CAT_ID":35368,"ELEMENT_SET_NO":999,"REV_AT_EPOCH":96430,"BSTAR":0.002013994,"MEAN_MOTION_DOT":3.675e-5,"MEAN_MOTION_DDOT":0}]
